$$SOE
2460728.500000000, A.D. 2025-Feb-22 00:00:00.0000, -5.779672249696399E+08, 3.438346020628231E+08, 9.442521257517387E+07,
2460735.500000000, A.D. 2025-Mar-01 00:00:00.0000, -5.827644849546477E+08, 3.376500329213604E+08, 9.385691891457088E+07,
2460742.500000000, A.D. 2025-Mar-08 00:00:00.0000, -5.874717224789987E+08, 3.314132877787520E+08, 9.327412733006157E+07,
2460749.500000000, A.D. 2025-Mar-15 00:00:00.0000, -5.920885666926372E+08, 3.251255348323216E+08, 9.267698468866484E+07,
2460756.500000000, A.D. 2025-Mar-22 00:00:00.0000, -5.966146592633017E+08, 3.187879400578340E+08, 9.206563829776309E+07,
2460763.500000000, A.D. 2025-Mar-29 00:00:00.0000, -6.010496550177406E+08, 3.124016654162831E+08, 9.144023582943079E+07,
2460770.500000000, A.D. 2025-Apr-05 00:00:00.0000, -6.053932208936849E+08, 3.059678679468839E+08, 9.080092516313410E+07,
2460777.500000000, A.D. 2025-Apr-12 00:00:00.0000, -6.096450351290026E+08, 2.994876998502678E+08, 9.014785433172157E+07,
2460784.500000000, A.D. 2025-Apr-19 00:00:00.0000, -6.138047868756026E+08, 2.929623086810694E+08, 8.948117151563902E+07,
2460791.500000000, A.D. 2025-Apr-26 00:00:00.0000, -6.178721759664165E+08, 2.863928374474370E+08, 8.880102504361075E+07,
2460798.500000000, A.D. 2025-May-03 00:00:00.0000, -6.218469127215700E+08, 2.797804246370631E+08, 8.810756339066589E+07,
2460805.500000000, A.D. 2025-May-10 00:00:00.0000, -6.257287177649267E+08, 2.731262041786774E+08, 8.740093517136267E+07,
2460812.500000000, A.D. 2025-May-17 00:00:00.0000, -6.295173218140497E+08, 2.664313052981586E+08, 8.668128912129731E+07,
2460819.500000000, A.D. 2025-May-24 00:00:00.0000, -6.332124652694539E+08, 2.596968522149171E+08, 8.594877404635134E+07,
2460826.500000000, A.D. 2025-May-31 00:00:00.0000, -6.368138971851590E+08, 2.529239639895827E+08, 8.520353872666588E+07,
2460833.500000000, A.D. 2025-Jun-07 00:00:00.0000, -6.403213740213454E+08, 2.461137557277395E+08, 8.444573191050953E+07,
2460840.500000000, A.D. 2025-Jun-14 00:00:00.0000, -6.437346605438186E+08, 2.392673404728833E+08, 8.367550256041920E+07,
2460847.500000000, A.D. 2025-Jun-21 00:00:00.0000, -6.470535316536628E+08, 2.323858285175812E+08, 8.289299997271486E+07,
2460854.500000000, A.D. 2025-Jun-28 00:00:00.0000, -6.502777720184044E+08, 2.254703258976956E+08, 8.209837362765865E+07,
2460861.500000000, A.D. 2025-Jul-05 00:00:00.0000, -6.534071750210413E+08, 2.185219342258868E+08, 8.129177308557555E+07,
2460868.500000000, A.D. 2025-Jul-12 00:00:00.0000, -6.564415422180970E+08, 2.115417510589603E+08, 8.047334797241014E+07,
2460875.500000000, A.D. 2025-Jul-19 00:00:00.0000, -6.593806831172674E+08, 2.045308702241499E+08, 7.964324799041709E+07,
2460882.500000000, A.D. 2025-Jul-26 00:00:00.0000, -6.622244150646819E+08, 1.974903820479188E+08, 7.880162293018958E+07,
2460889.500000000, A.D. 2025-Aug-02 00:00:00.0000, -6.649725631762848E+08, 1.904213735090417E+08, 7.794862267988567E+07,
2460896.500000000, A.D. 2025-Aug-09 00:00:00.0000, -6.676249602898341E+08, 1.833249283014698E+08, 7.708439722843674E+07,
2460903.500000000, A.D. 2025-Aug-16 00:00:00.0000, -6.701814468604977E+08, 1.762021267439424E+08, 7.620909665067060E+07,
2460910.500000000, A.D. 2025-Aug-23 00:00:00.0000, -6.726418705073351E+08, 1.690540455530230E+08, 7.532287104905194E+07,
2460917.500000000, A.D. 2025-Aug-30 00:00:00.0000, -6.750060848816242E+08, 1.618817581937196E+08, 7.442587048043367E+07,
2460924.500000000, A.D. 2025-Sep-06 00:00:00.0000, -6.772739492751619E+08, 1.546863368079503E+08, 7.351824507987204E+07,
2460931.500000000, A.D. 2025-Sep-13 00:00:00.0000, -6.794453306396242E+08, 1.474688532380815E+08, 7.260014533211885E+07,
2460938.500000000, A.D. 2025-Sep-20 00:00:00.0000, -6.815201047439058E+08, 1.402303775015042E+08, 7.167172205646382E+07,
2460945.500000000, A.D. 2025-Sep-27 00:00:00.0000, -6.834981554104811E+08, 1.329719768280375E+08, 7.073312626230352E+07,
2460952.500000000, A.D. 2025-Oct-04 00:00:00.0000, -6.853793738473077E+08, 1.256947157993055E+08, 6.978450910460754E+07,
2460959.500000000, A.D. 2025-Oct-11 00:00:00.0000, -6.871636584490936E+08, 1.183996566472211E+08, 6.882602189659826E+07,
2460966.500000000, A.D. 2025-Oct-18 00:00:00.0000, -6.888509147843028E+08, 1.110878594375567E+08, 6.785781613123770E+07,
2460973.500000000, A.D. 2025-Oct-25 00:00:00.0000, -6.904410556281657E+08, 1.037603821500457E+08, 6.688004349956175E+07,
2460980.500000000, A.D. 2025-Nov-01 00:00:00.0000, -6.919340010019522E+08, 9.641828067088310E+07, 6.589285590336545E+07,
2460987.500000000, A.D. 2025-Nov-08 00:00:00.0000, -6.933296781837016E+08, 8.906260866650382E+07, 6.489640545630519E+07,
2460994.500000000, A.D. 2025-Nov-15 00:00:00.0000, -6.946280215424170E+08, 8.169441728031147E+07, 6.389084445485131E+07,
2461001.500000000, A.D. 2025-Nov-22 00:00:00.0000, -6.958289717930629E+08, 7.431475487267032E+07, 6.287632529992676E+07,
2461008.500000000, A.D. 2025-Nov-29 00:00:00.0000, -6.969324748257188E+08, 6.692466793937925E+07, 6.185300047583357E+07,
2461015.500000000, A.D. 2025-Dec-06 00:00:00.0000, -6.979384823866625E+08, 5.952520307283111E+07, 6.082102278406151E+07,
2461022.500000000, A.D. 2025-Dec-13 00:00:00.0000, -6.988469541783127E+08, 5.211740659597951E+07, 5.978054551665797E+07,
2461029.500000000, A.D. 2025-Dec-20 00:00:00.0000, -6.996578578849649E+08, 4.470232289299860E+07, 5.873172233228502E+07,
2461036.500000000, A.D. 2025-Dec-27 00:00:00.0000, -7.003711681977077E+08, 3.728099402846166E+07, 5.767470714511590E+07,
2461043.500000000, A.D. 2026-Jan-03 00:00:00.0000, -7.009868662975806E+08, 2.985446003984088E+07, 5.660965411004911E+07,
2461050.500000000, A.D. 2026-Jan-10 00:00:00.0000, -7.015049396873140E+08, 2.242375922502336E+07, 5.553671763871610E+07,
2461057.500000000, A.D. 2026-Jan-17 00:00:00.0000, -7.019253821391472E+08, 1.498992833410932E+07, 5.445605241753385E+07,
2461064.500000000, A.D. 2026-Jan-24 00:00:00.0000, -7.022481936807374E+08, 7.554002689065181E+06, 5.336781342259584E+07,
2461071.500000000, A.D. 2026-Jan-31 00:00:00.0000, -7.024733805956430E+08, 1.170162247359641E+05, 5.227215592874005E+07,
2461078.500000000, A.D. 2026-Feb-07 00:00:00.0000, -7.026009553768091E+08, -7.319998605225205E+06, 5.116923550257164E+07,
2461085.500000000, A.D. 2026-Feb-14 00:00:00.0000, -7.026309363799374E+08, -1.475601107193123E+07, 5.005920795507932E+07,
2461092.500000000, A.D. 2026-Feb-21 00:00:00.0000, -7.025633467890750E+08, -2.218999198652418E+07, 4.894222926555033E+07,
2461099.500000000, A.D. 2026-Feb-28 00:00:00.0000, -7.023982139791182E+08, -2.962091193311888E+07, 4.781845567061925E+07,
2461106.500000000, A.D. 2026-Mar-07 00:00:00.0000, -7.021355713338765E+08, -3.704773986920213E+07, 4.668804394796915E+07,
2461113.500000000, A.D. 2026-Mar-14 00:00:00.0000, -7.017754597442992E+08, -4.446944442599986E+07, 4.555115144956046E+07,
2461120.500000000, A.D. 2026-Mar-21 00:00:00.0000, -7.013179270037823E+08, -5.188499501050498E+07, 4.440793595779711E+07,
2461127.500000000, A.D. 2026-Mar-28 00:00:00.0000, -7.007630271095110E+08, -5.929336168052592E+07, 4.325855563308348E+07,
2461134.500000000, A.D. 2026-Apr-04 00:00:00.0000, -7.001108200734444E+08, -6.669351475865655E+07, 4.210316902935733E+07,
2461141.500000000, A.D. 2026-Apr-11 00:00:00.0000, -6.993613719691343E+08, -7.408442454530020E+07, 4.094193512324201E+07,
2461148.500000000, A.D. 2026-Apr-18 00:00:00.0000, -6.985147550551074E+08, -8.146506113753526E+07, 3.977501334187040E+07,
2461155.500000000, A.D. 2026-Apr-25 00:00:00.0000, -6.975710479288203E+08, -8.883439433919483E+07, 3.860256358659329E+07,
2461162.500000000, A.D. 2026-May-02 00:00:00.0000, -6.965303356802603E+08, -9.619139369185321E+07, 3.742474624753778E+07,
2461169.500000000, A.D. 2026-May-09 00:00:00.0000, -6.953927099203243E+08, -1.035350286929906E+08, 3.624172219235250E+07,
2461176.500000000, A.D. 2026-May-16 00:00:00.0000, -6.941582683057609E+08, -1.108642690629862E+08, 3.505365270591348E+07,
2461183.500000000, A.D. 2026-May-23 00:00:00.0000, -6.928271135085920E+08, -1.181780840385172E+08, 3.386069945986136E+07,
2461190.500000000, A.D. 2026-May-30 00:00:00.0000, -6.913993537082769E+08, -1.254754403728293E+08, 3.266302472870991E+07,
2461197.500000000, A.D. 2026-Jun-06 00:00:00.0000, -6.898751049241172E+08, -1.327553023165028E+08, 3.146079161402446E+07,
2461204.500000000, A.D. 2026-Jun-13 00:00:00.0000, -6.882544915221853E+08, -1.400166333795108E+08, 3.025416395657378E+07,
2461211.500000000, A.D. 2026-Jun-20 00:00:00.0000, -6.865376453974507E+08, -1.472583969480453E+08, 2.904330622133662E+07,
2461218.500000000, A.D. 2026-Jun-27 00:00:00.0000, -6.847247055289255E+08, -1.544795560959194E+08, 2.782838348308301E+07,
2461225.500000000, A.D. 2026-Jul-04 00:00:00.0000, -6.828158179076810E+08, -1.616790733656223E+08, 2.660956144890972E+07,
2461232.500000000, A.D. 2026-Jul-11 00:00:00.0000, -6.808111355837834E+08, -1.688559106511410E+08, 2.538700648337566E+07,
2461239.500000000, A.D. 2026-Jul-18 00:00:00.0000, -6.787108187395669E+08, -1.760090291569887E+08, 2.416088562957388E+07,
2461246.500000000, A.D. 2026-Jul-25 00:00:00.0000, -6.765150347650212E+08, -1.831373894308361E+08, 2.293136662389678E+07,
2461253.500000000, A.D. 2026-Aug-01 00:00:00.0000, -6.742239582874871E+08, -1.902399515178878E+08, 2.169861789596194E+07,
2461260.500000000, A.D. 2026-Aug-08 00:00:00.0000, -6.718377709410512E+08, -1.973156752727933E+08, 2.046280853091543E+07,
2461267.500000000, A.D. 2026-Aug-15 00:00:00.0000, -6.693566604607786E+08, -2.043635203785027E+08, 1.922410819275507E+07,
2461274.500000000, A.D. 2026-Aug-22 00:00:00.0000, -6.667808198628490E+08, -2.113824448505516E+08, 1.798268717821880E+07,
2461281.500000000, A.D. 2026-Aug-29 00:00:00.0000, -6.641104489997425E+08, -2.183714033994556E+08, 1.673871669895639E+07,
2461288.500000000, A.D. 2026-Sep-05 00:00:00.0000, -6.613457563572385E+08, -2.253293485193660E+08, 1.549236896188627E+07,
2461295.500000000, A.D. 2026-Sep-12 00:00:00.0000, -6.584869586385863E+08, -2.322552318070489E+08, 1.424381702656484E+07,
$$EOE